[Satellite]
VERSION=1.1
NAME=IRIDIUM 154
NICKNAME=IRIDIUM 154
TLE1=1 43574U 18061F   22342.42105236  .00000285  00000+0  94588-4 0  9997
TLE2=2 43574  86.3999 234.4614 0002197  77.8734 282.2707 14.34217123228972
STATUS=0
